ONEWEB-0456             
1 51646U 22012AA  24023.06432872 -.00000127  00000+0 -39964-3 0  9997
2 51646  87.8888 210.2797 0001796  85.7970 274.3362 13.10370147 95893
ONEWEB-0457             
1 51647U 22012AB  24022.88887713  .00000631  00000+0  17706-2 0  9992
2 51647  87.8902 210.3243 0001071  95.5545 264.5704 13.10372577 94586
ONEWEB-0458             
1 51648U 22012AC  24023.44448497  .00000106  00000+0  26682-3 0  9999
2 51648  87.8900 210.2277 0001507  99.5297 260.6000 13.10369009 95913
ONEWEB-0461             
1 51649U 22012AD  24022.92547952  .00000005  00000+0 -20987-4 0  9990
2 51649  87.9219 180.1109 0001348  95.6499 264.4786 13.17647672 99785
ONEWEB-0463             
1 51650U 22012AE  24023.43964064 -.00000732  00000+0 -19186-2 0  9991
2 51650  87.9226 180.0499 0001439  98.5467 261.5827 13.17642776 99643
ONEWEB-0464             
1 51651U 22012AF  24022.90672993  .00000144  00000+0  37742-3 0  9994
2 51651  87.8898 210.3230 0001917  89.9046 270.2301 13.10368832 94567
ONEWEB-0468             
1 51652U 22012AG  24023.44772445 -.00000056  00000+0 -19798-3 0  9993
2 51652  87.8898 210.2088 0001565  92.1305 268.0001 13.10369188 95907
ONEWEB-0473             
1 51653U 22012AH  24023.05132697  .00000579  00000+0  16229-2 0  9993
2 51653  87.8900 210.2913 0001593  94.7183 265.4126 13.10370353 95862
